[{"OBJECT_NAME":"OBJECT AD","OBJECT_ID":"2023-085AD","EPOCH":"2026-03-09T21:41:29.115744","MEAN_MOTION":15.31779154,"ECCENTRICITY":0.00101154,"INCLINATION":97.4841,"RA_OF_ASC_NODE":180.2223,"ARG_OF_PERICENTER":77.5993,"MEAN_ANOMALY":282.638,"EPHEMERIS_TYPE":0,"CLASSIFICATION_TYPE":"U","NORAD_CAT_ID":57031,"ELEMENT_SET_NO":999,"REV_AT_EPOCH":15156,"BSTAR":0.00068352515,"MEAN_MOTION_DOT":0.00020961,"MEAN_MOTION_DDOT":0},{"OBJECT_NAME":"STARLINK-34485","OBJECT_ID":"2025-139W","EPOCH":"2026-03-09T10:36:52.714656","MEAN_MOTION":15.30197102,"ECCENTRICITY":0.00011113,"INCLINATION":53.1574,"RA_OF_ASC_NODE":128.3676,"ARG_OF_PERICENTER":77.9485,"MEAN_ANOMALY":282.164,"EPHEMERIS_TYPE":0,"CLASSIFICATION_TYPE":"U","NORAD_CAT_ID":64684,"ELEMENT_SET_NO":999,"REV_AT_EPOCH":4024,"BSTAR":0.00089654486,"MEAN_MOTION_DOT":0.00026285,"MEAN_MOTION_DDOT":0}]
